CCSDS_OMM_VERS = 2.0
CREATION_DATE  = 
ORIGINATOR     = 

OBJECT_NAME    = 2025-226A
OBJECT_ID      = 2025-226A
CENTER_NAME    = EARTH
REF_FRAME      = TEME
TIME_SYSTEM    = UTC
MEAN_ELEMENT_THEORY = SGP/SGP4

EPOCH          = 2025-10-31T06:22:20.572896
MEAN_MOTION    = 15.11835230
ECCENTRICITY   = .00146134
INCLINATION    = 97.6668
RA_OF_ASC_NODE = 18.4551
ARG_OF_PERICENTER = 210.5413
MEAN_ANOMALY   = 149.4967

EPHEMERIS_TYPE = 0
CLASSIFICATION_TYPE = U
NORAD_CAT_ID   = 65938
ELEMENT_SET_NO = 999
REV_AT_EPOCH   = 305
BSTAR          = .75134706E-3
MEAN_MOTION_DOT = .1282E-3
MEAN_MOTION_DDOT = 0

CCSDS_OMM_VERS = 2.0
CREATION_DATE  = 
ORIGINATOR     = 

OBJECT_NAME    = 2025-226B
OBJECT_ID      = 2025-226B
CENTER_NAME    = EARTH
REF_FRAME      = TEME
TIME_SYSTEM    = UTC
MEAN_ELEMENT_THEORY = SGP/SGP4

EPOCH          = 2025-10-31T06:54:16.117920
MEAN_MOTION    = 15.09697303
ECCENTRICITY   = .00207645
INCLINATION    = 97.6627
RA_OF_ASC_NODE = 18.4157
ARG_OF_PERICENTER = 214.9143
MEAN_ANOMALY   = 145.0725

EPHEMERIS_TYPE = 0
CLASSIFICATION_TYPE = U
NORAD_CAT_ID   = 65939
ELEMENT_SET_NO = 999
REV_AT_EPOCH   = 304
BSTAR          = .51802669E-3
MEAN_MOTION_DOT = .8327E-4
MEAN_MOTION_DDOT = 0

CCSDS_OMM_VERS = 2.0
CREATION_DATE  = 
ORIGINATOR     = 

OBJECT_NAME    = 2025-226C
OBJECT_ID      = 2025-226C
CENTER_NAME    = EARTH
REF_FRAME      = TEME
TIME_SYSTEM    = UTC
MEAN_ELEMENT_THEORY = SGP/SGP4

EPOCH          = 2025-10-31T06:24:29.172384
MEAN_MOTION    = 15.11723877
ECCENTRICITY   = .00145752
INCLINATION    = 97.6578
RA_OF_ASC_NODE = 18.4312
ARG_OF_PERICENTER = 208.3556
MEAN_ANOMALY   = 151.6883

EPHEMERIS_TYPE = 0
CLASSIFICATION_TYPE = U
NORAD_CAT_ID   = 65940
ELEMENT_SET_NO = 999
REV_AT_EPOCH   = 304
BSTAR          = .7664587E-3
MEAN_MOTION_DOT = .13039E-3
MEAN_MOTION_DDOT = 0

CCSDS_OMM_VERS = 2.0
CREATION_DATE  = 
ORIGINATOR     = 

OBJECT_NAME    = YOTSUBA-KULOVER
OBJECT_ID      = 1998-067XN
CENTER_NAME    = EARTH
REF_FRAME      = TEME
TIME_SYSTEM    = UTC
MEAN_ELEMENT_THEORY = SGP/SGP4

EPOCH          = 2025-10-31T04:48:02.193696
MEAN_MOTION    = 15.53087293
ECCENTRICITY   = .00025259
INCLINATION    = 51.6335
RA_OF_ASC_NODE = 352.7259
ARG_OF_PERICENTER = 341.0736
MEAN_ANOMALY   = 19.0160

EPHEMERIS_TYPE = 0
CLASSIFICATION_TYPE = U
NORAD_CAT_ID   = 65941
ELEMENT_SET_NO = 999
REV_AT_EPOCH   = 323
BSTAR          = .96446683E-3
MEAN_MOTION_DOT = .61481E-3
MEAN_MOTION_DDOT = 0

CCSDS_OMM_VERS = 2.0
CREATION_DATE  = 
ORIGINATOR     = 

OBJECT_NAME    = BOTAN
OBJECT_ID      = 1998-067XP
CENTER_NAME    = EARTH
REF_FRAME      = TEME
TIME_SYSTEM    = UTC
MEAN_ELEMENT_THEORY = SGP/SGP4

EPOCH          = 2025-10-30T13:14:20.391360
MEAN_MOTION    = 15.53757174
ECCENTRICITY   = .00045197
INCLINATION    = 51.6336
RA_OF_ASC_NODE = 355.8960
ARG_OF_PERICENTER = 355.9022
MEAN_ANOMALY   = 4.1931

EPHEMERIS_TYPE = 0
CLASSIFICATION_TYPE = U
NORAD_CAT_ID   = 65942
ELEMENT_SET_NO = 999
REV_AT_EPOCH   = 313
BSTAR          = .13052464E-2
MEAN_MOTION_DOT = .85715E-3
MEAN_MOTION_DDOT = 0

CCSDS_OMM_VERS = 2.0
CREATION_DATE  = 
ORIGINATOR     = 

OBJECT_NAME    = E-KAGAKU-1
OBJECT_ID      = 1998-067XQ
CENTER_NAME    = EARTH
REF_FRAME      = TEME
TIME_SYSTEM    = UTC
MEAN_ELEMENT_THEORY = SGP/SGP4

EPOCH          = 2025-10-30T13:20:49.786656
MEAN_MOTION    = 15.52998589
ECCENTRICITY   = .00042691
INCLINATION    = 51.6342
RA_OF_ASC_NODE = 355.9257
ARG_OF_PERICENTER = 345.4826
MEAN_ANOMALY   = 14.6041

EPHEMERIS_TYPE = 0
CLASSIFICATION_TYPE = U
NORAD_CAT_ID   = 65943
ELEMENT_SET_NO = 999
REV_AT_EPOCH   = 313
BSTAR          = .9954143E-3
MEAN_MOTION_DOT = .63292E-3
MEAN_MOTION_DDOT = 0

CCSDS_OMM_VERS = 2.0
CREATION_DATE  = 
ORIGINATOR     = 

OBJECT_NAME    = 2025-226D
OBJECT_ID      = 2025-226D
CENTER_NAME    = EARTH
REF_FRAME      = TEME
TIME_SYSTEM    = UTC
MEAN_ELEMENT_THEORY = SGP/SGP4

EPOCH          = 2025-10-17T22:42:20.181888
MEAN_MOTION    = 15.16526485
ECCENTRICITY   = .0019022
INCLINATION    = 97.6632
RA_OF_ASC_NODE = 5.1263
ARG_OF_PERICENTER = 287.2735
MEAN_ANOMALY   = 72.6416

EPHEMERIS_TYPE = 0
CLASSIFICATION_TYPE = U
NORAD_CAT_ID   = 65944
ELEMENT_SET_NO = 999
REV_AT_EPOCH   = 102
BSTAR          = 0
MEAN_MOTION_DOT = -.71E-6
MEAN_MOTION_DDOT = 0

CCSDS_OMM_VERS = 2.0
CREATION_DATE  = 
ORIGINATOR     = 

OBJECT_NAME    = SHIYAN-31
OBJECT_ID      = 2025-227A
CENTER_NAME    = EARTH
REF_FRAME      = TEME
TIME_SYSTEM    = UTC
MEAN_ELEMENT_THEORY = SGP/SGP4

EPOCH          = 2025-10-31T07:09:40.007808
MEAN_MOTION    = 15.20316580
ECCENTRICITY   = .00115525
INCLINATION    = 80.0037
RA_OF_ASC_NODE = 78.2685
ARG_OF_PERICENTER = 210.1939
MEAN_ANOMALY   = 149.8624

EPHEMERIS_TYPE = 0
CLASSIFICATION_TYPE = U
NORAD_CAT_ID   = 65945
ELEMENT_SET_NO = 999
REV_AT_EPOCH   = 272
BSTAR          = .52040952E-3
MEAN_MOTION_DOT = .11354E-3
MEAN_MOTION_DDOT = 0

CCSDS_OMM_VERS = 2.0
CREATION_DATE  = 
ORIGINATOR     = 

OBJECT_NAME    = CZ-2D R/B
OBJECT_ID      = 2025-227B
CENTER_NAME    = EARTH
REF_FRAME      = TEME
TIME_SYSTEM    = UTC
MEAN_ELEMENT_THEORY = SGP/SGP4

EPOCH          = 2025-10-31T06:46:05.202624
MEAN_MOTION    = 15.27394346
ECCENTRICITY   = .00214387
INCLINATION    = 80.1539
RA_OF_ASC_NODE = 78.5748
ARG_OF_PERICENTER = 336.4395
MEAN_ANOMALY   = 23.5851

EPHEMERIS_TYPE = 0
CLASSIFICATION_TYPE = U
NORAD_CAT_ID   = 65946
ELEMENT_SET_NO = 999
REV_AT_EPOCH   = 273
BSTAR          = .47353113E-3
MEAN_MOTION_DOT = .1281E-3
MEAN_MOTION_DDOT = 0

CCSDS_OMM_VERS = 2.0
CREATION_DATE  = 
ORIGINATOR     = 

OBJECT_NAME    = KUIPER-00101
OBJECT_ID      = 2025-228A
CENTER_NAME    = EARTH
REF_FRAME      = TEME
TIME_SYSTEM    = UTC
MEAN_ELEMENT_THEORY = SGP/SGP4

EPOCH          = 2025-10-31T04:57:10.699776
MEAN_MOTION    = 15.34745638
ECCENTRICITY   = .00063234
INCLINATION    = 51.8781
RA_OF_ASC_NODE = 225.4753
ARG_OF_PERICENTER = 193.2351
MEAN_ANOMALY   = 166.8470

EPHEMERIS_TYPE = 0
CLASSIFICATION_TYPE = U
NORAD_CAT_ID   = 65947
ELEMENT_SET_NO = 999
REV_AT_EPOCH   = 388
BSTAR          = .12429629E-2
MEAN_MOTION_DOT = .42383E-3
MEAN_MOTION_DDOT = 0

CCSDS_OMM_VERS = 2.0
CREATION_DATE  = 
ORIGINATOR     = 

OBJECT_NAME    = KUIPER-00113
OBJECT_ID      = 2025-228B
CENTER_NAME    = EARTH
REF_FRAME      = TEME
TIME_SYSTEM    = UTC
MEAN_ELEMENT_THEORY = SGP/SGP4

EPOCH          = 2025-10-31T06:26:49.197408
MEAN_MOTION    = 15.34997496
ECCENTRICITY   = .00064966
INCLINATION    = 51.8790
RA_OF_ASC_NODE = 225.1472
ARG_OF_PERICENTER = 190.8139
MEAN_ANOMALY   = 169.2709

EPHEMERIS_TYPE = 0
CLASSIFICATION_TYPE = U
NORAD_CAT_ID   = 65948
ELEMENT_SET_NO = 999
REV_AT_EPOCH   = 389
BSTAR          = .9890867E-3
MEAN_MOTION_DOT = .33884E-3
MEAN_MOTION_DDOT = 0

CCSDS_OMM_VERS = 2.0
CREATION_DATE  = 
ORIGINATOR     = 

OBJECT_NAME    = KUIPER-00117
OBJECT_ID      = 2025-228C
CENTER_NAME    = EARTH
REF_FRAME      = TEME
TIME_SYSTEM    = UTC
MEAN_ELEMENT_THEORY = SGP/SGP4

EPOCH          = 2025-10-31T04:53:44.690208
MEAN_MOTION    = 15.34947354
ECCENTRICITY   = .00061421
INCLINATION    = 51.8789
RA_OF_ASC_NODE = 225.4638
ARG_OF_PERICENTER = 192.8992
MEAN_ANOMALY   = 167.1838

EPHEMERIS_TYPE = 0
CLASSIFICATION_TYPE = U
NORAD_CAT_ID   = 65949
ELEMENT_SET_NO = 999
REV_AT_EPOCH   = 388
BSTAR          = .11776479E-2
MEAN_MOTION_DOT = .40384E-3
MEAN_MOTION_DDOT = 0

